#cP2024  2 22  0  0  0.00000000      96 ORBIT IGS20 HLM  IGS
## 2302 345600.00000000   900.00000000 60362 0.0000000000000
+   32   G01G02G03G04G05G06G07G08G09G10G11G12G13G14G15G16G17
+        G18G19G20G21G22G23G24G25G26G27G28G29G30G31G32  0  0
+          0  0  0  0  0  0  0  0  0  0  0  0  0  0  0  0  0
+          0  0  0  0  0  0  0  0  0  0  0  0  0  0  0  0  0
+          0  0  0  0  0  0  0  0  0  0  0  0  0  0  0  0  0
++         2  2  2  2  2  2  2  0  2  2  2  2  2  2  2  2  2
++         2  2  2  2  2  2  2  2  2  2  2  2  2  2  2  0  0
++         0  0  0  0  0  0  0  0  0  0  0  0  0  0  0  0  0
++         0  0  0  0  0  0  0  0  0  0  0  0  0  0  0  0  0
++         0  0  0  0  0  0  0  0  0  0  0  0  0  0  0  0  0
%c G  cc GPS ccc cccc cccc cccc cccc ccccc ccccc ccccc ccccc
%c cc cc ccc ccc cccc cccc cccc cccc ccccc ccccc ccccc ccccc
%f  1.2500000  1.025000000  0.00000000000  0.000000000000000
%f  0.0000000  0.000000000  0.00000000000  0.000000000000000
%i    0    0    0    0      0      0      0      0         0
%i    0    0    0    0      0      0      0      0         0
/* RAPID ORBIT COMBINATION FROM WEIGHTED AVERAGE OF:        
/* cod emr esa gfz grg jgx jpl ngs sio usn whu              
/* REFERENCED TO IGS TIME (IGST) AND TO WEIGHTED MEAN POLE: 
/* PCV:IGS20      OL/AL:FES2014b NONE     Y  ORB:CMB CLK:CMB
*  2024  2 22 12  0  0.00000000
PG01 -23407.017949 -12274.950952   3738.783584    170.610026  7  7  8  97       
PG02 -21997.251868 -14403.997102  -4134.875799   -481.494820  9  4  7 103       
PG03 -11899.162226 -14676.115298  18575.648040    209.119022  5  4  4 105       
PG04 -17799.511513  -5836.787556  18896.394658    297.921642  8  5  7  91       
PG05   6792.691989  23936.115353  -9331.352860   -162.755031  7  3  2 100       
PG06  -7974.176867  12239.192633  22250.447019    397.046606  5  7  5 107       
PG07 -22726.960079  -2894.454177 -13336.624362    -67.949340  7  4  2  97       
PG08 -10522.883368 -11575.948452 -21594.863922 999999.999999                    
PG09 -24064.345747   5951.153587   9534.826447    100.661590  7  4  4  99       
PG10  10726.252630 -18611.801366 -15196.768563      1.149569  7  6  5  95       
PG11   4102.165059  18479.868640  18675.139790   -584.246930  5  6  3  92       
PG12  10944.182110  15953.588333  17940.409295   -480.452050  5  4  5  88       
PG13     16.161732  15706.244919 -21589.482057    627.839950  5  6  4 102       
PG14 -13365.169479  14933.980237 -17311.384603    332.369487  7  3  5 104       
PG15  11790.559135  11073.799516 -21572.880467    130.330766  8  4  2 103       
PG16   -169.743160 -25957.475393  -4644.235836   -357.075793  9  3  7 101       
PG17 -22808.055430  13350.340395   3797.991625    716.168400  7  3  4 101       
PG18  21833.649702   1873.240713 -15122.037968   -561.053981 10  5  6  79       
PG19 -17385.188823  15823.759482  11811.607562    444.194364  7  5  6  84       
PG20    697.726397  26296.763133   4317.665916    386.550902  8  5  6  93       
PG21 -19229.420545 -16564.713469  -8883.202969    134.008646 10  4  8 105       
PG22 -10387.124018  21786.188184 -10981.905924     27.112150  4  2  3 104       
PG23  14439.302445  -6102.632167 -21387.759973    161.611876  8  5  6  89       
PG24  20411.250742  15983.487739  -7111.574030   -435.786092  6  5  3  81       
PG25  15041.143102   4329.698427  21145.295296    489.340938  6  5  6  94       
PG26   4379.290151 -24880.998477   7413.735131    187.498711  4  4  5 103       
PG27   2776.862608 -17366.412422 -20048.352060     -6.204970  8  6  4  91       
PG28  10592.086873 -11270.240523  21570.843347   -139.651095  6  4  4 109       
PG29  24103.018615  -2512.089178  10937.795521   -606.448568  8  4  3  93       
PG30 -16234.833007   7033.985418 -19753.290458   -429.249767  4  3  5 103       
PG31   1259.183945 -16490.520134  20485.915457   -227.845804  4  3  6 107       
PG32  20167.097476 -16020.589028   6223.664446   -612.913942  3  3  6 101       
*  2024  2 22 12 15  0.00000000
PG01 -23586.930872 -12553.066895    860.020071    170.611479  8  6  8  86       
PG02 -21286.968348 -14309.515609  -6896.603892   -481.489760  9  4  8  95       
PG03 -11785.694849 -16720.631079  16864.640247    209.140388  5  4  4  93       
PG04 -15882.723446  -6975.503125  20164.834710    297.930054  7  5  7  85       
PG05   6618.992926  24840.577620  -6651.358074   -162.756361  8  3  3  94       
PG06 -10131.590024  10953.042353  22050.898327    397.032914  5  7  5 104       
PG07 -23875.564634  -3805.945434 -11025.421991    -67.957381  8  4  3 101       
PG08  -8434.425551 -12874.306646 -21738.671980 999999.999999                    
PG09 -23122.914669   5109.994160  12005.337191    100.673109  7  4  4 101       
PG10  10883.290571 -16718.123367 -17162.684962      1.149884  7  6  4  97       
PG11   2186.726464  17381.526830  20002.473384   -584.258204  5  6  3  88       
PG12  10651.759265  17938.891620  16189.220057   -480.455235  5  4  6  74       
PG13  -2219.663041  16539.299019 -20812.936978    627.843105  6  6  4  94       
PG14 -13484.296089  12847.031189 -18841.537463    332.378450  7  3  6  94       
PG15   9933.605068  12562.988389 -21675.930307    130.334268  8  4  2 105       
PG16    139.591730 -26268.469581  -1790.277422   -357.067958  9  2  7 106       
PG17 -23103.375691  13260.223097    948.473887    716.167198  7  3  3  97       
PG18  23123.825294   2827.719016 -12911.522446   -561.061340 10  5  5  96       
PG19 -18613.194584  16119.412842   9280.319738    444.199040  7  5  6  96       
PG20    331.777474  25710.888843   7047.325932    386.550422  8  5  6 103       
PG21 -18076.510013 -16216.597787 -11362.337726    134.007441 10  4  8 116       
PG22 -10460.054423  20331.633097 -13330.473608     27.106654  3  2  3  94       
PG23  14556.827503  -3626.731367 -21881.646763    161.619330  8  5  6  95       
PG24  19478.473425  15851.828708  -9669.432633   -435.791462  6  5  3  83       
PG25  15029.759410   6785.552557  20532.777797    489.341970  6  5  7  92       
PG26   4797.598555 -23882.578830   9981.672911    187.494961  4  5  5  95       
PG27   4718.644977 -18357.751338 -18701.677553     -6.207806  8  6  4  91       
PG28  12722.788306 -10080.124980  21000.926782   -139.662787  5  4  4 105       
PG29  22927.905025  -1747.544111  13330.296944   -606.447741  8  4  2  91       
PG30 -18086.356286   5808.759042 -18537.226769   -429.245215  5  3  5  85       
PG31   3388.746490 -15302.425215  21183.789091   -227.845885  4  4  5 105       
PG32  20757.926443 -16068.000639   3425.470005   -612.915571  2  2  6  89       
*  2024  2 22 12 30  0.00000000
PG01 -23495.444489 -12667.231665  -2033.294763    170.612887  8  5  8  85       
PG02 -20284.302496 -14142.571146  -9539.585184   -481.484187  8  3  7 100       
PG03 -11773.740101 -18555.682061  14861.831796    209.161751  5  4  4 103       
PG04 -13922.390024  -8279.393697  21087.826165    297.938484  6  4  7  98       
PG05   6458.838455  25445.468182  -3856.819850   -162.757876  8  3  3  96       
PG06 -12318.825938   9812.221348  21474.665365    397.019226  6  7  5 107       
PG07 -24823.579191  -4530.566616  -8524.673107    -67.965251  8  4  4  95       
PG08  -6415.795832 -14278.045198 -21511.592720 999999.999999                    
PG09 -22005.884951   4067.386386  14268.993094    100.684631  7  3  3  90       
PG10  11156.168662 -14628.479158 -18824.966330      1.150248  7  6  4 102       
PG11    101.351604  16322.438122  20986.748636   -584.269497  4  6  3  97       
PG12  10465.858705  19718.358652  14154.569536   -480.458417  5  4  6  81       
PG13  -4312.876114  17446.792342 -19682.933166    627.846082  7  5  4  95       
PG14 -13711.204289  10615.056127 -20045.003262    332.387368  7  3  6 103       
PG15   8156.967985  14137.849312 -21421.952272    130.338174  8  4  2 106       
PG16    426.689324 -26267.023884   1095.270766   -357.060546  9  1  6 111       
PG17 -23125.753133  13021.973454  -1917.151693    716.166016  7  4  3  97       
PG18  24231.106517   3588.481524 -10480.652564   -561.068638 10  5  5  84       
PG19 -19557.435781  16341.548042   6584.787202    444.203825  7  5  6  94       
PG20   -133.342061  24852.195820   9657.066231    386.548724  8  6  6  97       
PG21 -16650.696710 -15836.028151 -13651.285184    134.006216  9  4  8 115       
PG22 -10603.595838  18624.760429 -15447.156069     27.101083  4  2  3 103       
PG23  14812.295051  -1128.243623 -21997.763455    161.626737  8  5  7 102       
PG24  18285.846638  15665.419976 -12067.295367   -435.796852  7  6  3  78       
PG25  15133.867033   9144.617170  19557.828872    489.343007  5  5  7  96       
PG26   5299.935929 -22624.788392  12373.192914    187.491216  4  5  4 103       
PG27   6469.188007 -19356.831642 -17035.635065     -6.210668  9  6  5  93       
PG28  14835.300644  -9038.251513  20068.936956   -139.674528  4  5  5 110       
PG29  21570.118132   -794.005186  15493.861169   -606.447339  8  5  3  98       
PG30 -19853.832105   4746.074992 -17001.513413   -429.240591  5  3  5 101       
PG31   5623.871218 -14197.086818  21508.458572   -227.846074  4  4  5 105       
PG32  21080.440321 -15964.932758    567.752878   -612.917209  3  3  6  89       
EOF
